{
  "norad_id": 53683,
  "name": "STARLINK-4625",
  "history": [
    {
      "epoch": "2026-03-28T15:00:30.240864Z",
      "apogee_km": 550.7199979626293,
      "perigee_km": 548.3022487675753,
      "latitude_deg": -3.0091687703108632e-05,
      "longitude_deg": -82.3479085205711,
      "height_km": 552.502391048835,
      "semi_major_axis_km": 6927.648123365102,
      "eccentricity": 0.0001745,
      "inclination_deg": 97.6028,
      "raan_deg": 328.8212,
      "arg_perigee_deg": 86.6288,
      "mean_anomaly_deg": 273.5138,
      "mean_motion_rev_day": 15.0565001
    },
    {
      "epoch": "2026-03-29T03:46:06.216960Z",
      "apogee_km": 550.7043415288244,
      "perigee_km": 548.3281564644185,
      "latitude_deg": 1.2533501117081579e-05,
      "longitude_deg": 86.25195104826763,
      "height_km": 552.509289065339,
      "semi_major_axis_km": 6927.653248996621,
      "eccentricity": 0.0001715,
      "inclination_deg": 97.6028,
      "raan_deg": 329.345,
      "arg_perigee_deg": 86.6533,
      "mean_anomaly_deg": 273.489,
      "mean_motion_rev_day": 15.05648339
    },
    {
      "epoch": "2026-03-30T05:17:18.030912Z",
      "apogee_km": 550.6710070760582,
      "perigee_km": 548.343595696565,
      "latitude_deg": -1.4777682839887118e-05,
      "longitude_deg": 63.452363520653016,
      "height_km": 552.5454786575019,
      "semi_major_axis_km": 6927.644301386311,
      "eccentricity": 0.00016798,
      "inclination_deg": 97.6027,
      "raan_deg": 330.3927,
      "arg_perigee_deg": 88.8036,
      "mean_anomaly_deg": 271.3383,
      "mean_motion_rev_day": 15.05651256
    },
    {
      "epoch": "2026-03-30T14:51:30.526848Z",
      "apogee_km": 550.7323238613362,
      "perigee_km": 548.3177565338456,
      "latitude_deg": -2.3180487887324655e-05,
      "longitude_deg": -80.09963289505447,
      "height_km": 552.5397501572306,
      "semi_major_axis_km": 6927.662040197591,
      "eccentricity": 0.00017427,
      "inclination_deg": 97.6028,
      "raan_deg": 330.7858,
      "arg_perigee_deg": 87.7383,
      "mean_anomaly_deg": 272.4043,
      "mean_motion_rev_day": 15.05645473
    },
    {
      "epoch": "2026-03-31T14:47:00.193344Z",
      "apogee_km": 550.9081618588525,
      "perigee_km": 548.1107782142526,
      "latitude_deg": 6.2801781199630785e-06,
      "longitude_deg": -78.97310693233935,
      "height_km": 552.6206430821455,
      "semi_major_axis_km": 6927.646470036552,
      "eccentricity": 0.0002019,
      "inclination_deg": 97.6023,
      "raan_deg": 331.7685,
      "arg_perigee_deg": 92.0184,
      "mean_anomaly_deg": 268.1274,
      "mean_motion_rev_day": 15.05650549
    },
    {
      "epoch": "2026-04-01T05:08:17.541888Z",
      "apogee_km": 551.2077174208871,
      "perigee_km": 547.8228665110328,
      "latitude_deg": 1.0413389304065924e-06,
      "longitude_deg": 65.70427749627784,
      "height_km": 552.3463569169243,
      "semi_major_axis_km": 6927.652291965959,
      "eccentricity": 0.0002443,
      "inclination_deg": 97.6022,
      "raan_deg": 332.3577,
      "arg_perigee_deg": 82.1871,
      "mean_anomaly_deg": 277.9633,
      "mean_motion_rev_day": 15.05648651
    },
    {
      "epoch": "2026-04-02T14:38:00.756672Z",
      "apogee_km": 550.869963377283,
      "perigee_km": 548.1443510600666,
      "latitude_deg": -2.2101907915105677e-05,
      "longitude_deg": -76.72568426556684,
      "height_km": 552.6937626803265,
      "semi_major_axis_km": 6927.644157218675,
      "eccentricity": 0.00019672,
      "inclination_deg": 97.6025,
      "raan_deg": 333.7334,
      "arg_perigee_deg": 95.2448,
      "mean_anomaly_deg": 264.9003,
      "mean_motion_rev_day": 15.05651303
    },
    {
      "epoch": "2026-04-02T22:36:30.242016Z",
      "apogee_km": 550.7611036615435,
      "perigee_km": 548.1855566929898,
      "latitude_deg": 3.278716996158302e-05,
      "longitude_deg": 163.65143733942963,
      "height_km": 552.4096021957059,
      "semi_major_axis_km": 6927.610330177266,
      "eccentricity": 0.00018589,
      "inclination_deg": 97.6026,
      "raan_deg": 334.0609,
      "arg_perigee_deg": 84.3896,
      "mean_anomaly_deg": 275.7543,
      "mean_motion_rev_day": 15.05662331
    },
    {
      "epoch": "2026-04-03T14:33:29.523744Z",
      "apogee_km": 551.2979133447789,
      "perigee_km": 547.6900031417254,
      "latitude_deg": -6.806988012108749e-05,
      "longitude_deg": -75.5961915086732,
      "height_km": 552.0427329052723,
      "semi_major_axis_km": 6927.630958243252,
      "eccentricity": 0.0002604,
      "inclination_deg": 97.6017,
      "raan_deg": 334.7153,
      "arg_perigee_deg": 73.5053,
      "mean_anomaly_deg": 286.6459,
      "mean_motion_rev_day": 15.05655606
    },
    {
      "epoch": "2026-04-04T04:54:49.426272Z",
      "apogee_km": 550.9132669942537,
      "perigee_km": 548.1297338087925,
      "latitude_deg": 2.0893766362013408e-05,
      "longitude_deg": 69.07120865352285,
      "height_km": 552.5391093871253,
      "semi_major_axis_km": 6927.658500401522,
      "eccentricity": 0.0002009,
      "inclination_deg": 97.6021,
      "raan_deg": 335.3052,
      "arg_perigee_deg": 88.1761,
      "mean_anomaly_deg": 271.9696,
      "mean_motion_rev_day": 15.05646627
    },
    {
      "epoch": "2026-04-05T14:24:30.500064Z",
      "apogee_km": 550.8391308986238,
      "perigee_km": 548.1733737751247,
      "latitude_deg": -3.085167559012055e-05,
      "longitude_deg": -73.35020731364361,
      "height_km": 552.6890959524534,
      "semi_major_axis_km": 6927.643252336874,
      "eccentricity": 0.0001924,
      "inclination_deg": 97.602,
      "raan_deg": 336.6805,
      "arg_perigee_deg": 95.1966,
      "mean_anomaly_deg": 264.948,
      "mean_motion_rev_day": 15.05651598
    },
    {
      "epoch": "2026-04-06T04:45:48.376512Z",
      "apogee_km": 551.0048569716073,
      "perigee_km": 548.0207025524778,
      "latitude_deg": -6.0880840502891946e-06,
      "longitude_deg": 71.32526549896295,
      "height_km": 552.6673603134964,
      "semi_major_axis_km": 6927.649779762042,
      "eccentricity": 0.00021538,
      "inclination_deg": 97.6021,
      "raan_deg": 337.27,
      "arg_perigee_deg": 93.5692,
      "mean_anomaly_deg": 266.5781,
      "mean_motion_rev_day": 15.0564947
    },
    {
      "epoch": "2026-04-07T09:28:24.364416Z",
      "apogee_km": 551.0800465731099,
      "perigee_km": 547.9524882290088,
      "latitude_deg": -3.6664356516342754e-05,
      "longitude_deg": 0.674739146379477,
      "height_km": 552.5896849234965,
      "semi_major_axis_km": 6927.65326740106,
      "eccentricity": 0.00022573,
      "inclination_deg": 97.6027,
      "raan_deg": 338.4485,
      "arg_perigee_deg": 90.4378,
      "mean_anomaly_deg": 269.7107,
      "mean_motion_rev_day": 15.05648333
    },
    {
      "epoch": "2026-04-07T15:51:12.532608Z",
      "apogee_km": 551.1122030565675,
      "perigee_km": 547.9282517948423,
      "latitude_deg": -3.492690311400406e-06,
      "longitude_deg": -95.02608604481227,
      "height_km": 552.5819829545461,
      "semi_major_axis_km": 6927.657227425704,
      "eccentricity": 0.0002298,
      "inclination_deg": 97.6027,
      "raan_deg": 338.7104,
      "arg_perigee_deg": 90.0133,
      "mean_anomaly_deg": 270.1357,
      "mean_motion_rev_day": 15.05647042
    },
    {
      "epoch": "2026-04-08T14:11:00.447360Z",
      "apogee_km": 551.1093754438698,
      "perigee_km": 547.9334597189136,
      "latitude_deg": 6.573097005578212e-05,
      "longitude_deg": -69.97570239506635,
      "height_km": 552.561525074863,
      "semi_major_axis_km": 6927.658417581391,
      "eccentricity": 0.00022922,
      "inclination_deg": 97.6025,
      "raan_deg": 339.6275,
      "arg_perigee_deg": 89.2322,
      "mean_anomaly_deg": 270.9168,
      "mean_motion_rev_day": 15.05646654
    },
    {
      "epoch": "2026-04-09T09:19:24.618432Z",
      "apogee_km": 551.1261454475325,
      "perigee_km": 547.9251496446086,
      "latitude_deg": 5.5678009942684694e-05,
      "longitude_deg": 2.9237299260152216,
      "height_km": 552.5823535298352,
      "semi_major_axis_km": 6927.662647546071,
      "eccentricity": 0.00023103,
      "inclination_deg": 97.6024,
      "raan_deg": 340.4137,
      "arg_perigee_deg": 89.8334,
      "mean_anomaly_deg": 270.3158,
      "mean_motion_rev_day": 15.05645275
    }
  ]
}